CCSDS_OMM_VERS = 2.0
CREATION_DATE  = 
ORIGINATOR     = 

OBJECT_NAME    = UNKNOWN
OBJECT_ID      = 
CENTER_NAME    = EARTH
REF_FRAME      = TEME
TIME_SYSTEM    = UTC
MEAN_ELEMENT_THEORY = SGP/SGP4

EPOCH          = 2026-01-28T06:23:44.992608
MEAN_MOTION    = 13.76091352
ECCENTRICITY   = .01071889
INCLINATION    = 100.3737
RA_OF_ASC_NODE = 224.9121
ARG_OF_PERICENTER = 356.3383
MEAN_ANOMALY   = 3.6969

EPHEMERIS_TYPE = 0
CLASSIFICATION_TYPE = U
NORAD_CAT_ID   = 270036
ELEMENT_SET_NO = 999
REV_AT_EPOCH   = 30937
BSTAR          = .21874178E-2
MEAN_MOTION_DOT = .2167E-4
MEAN_MOTION_DDOT = 0

CCSDS_OMM_VERS = 2.0
CREATION_DATE  = 
ORIGINATOR     = 

OBJECT_NAME    = UNKNOWN
OBJECT_ID      = 
CENTER_NAME    = EARTH
REF_FRAME      = TEME
TIME_SYSTEM    = UTC
MEAN_ELEMENT_THEORY = SGP/SGP4

EPOCH          = 2026-01-24T14:13:10.522560
MEAN_MOTION    = 12.80785162
ECCENTRICITY   = .01906995
INCLINATION    = 102.8522
RA_OF_ASC_NODE = 139.1983
ARG_OF_PERICENTER = 303.0295
MEAN_ANOMALY   = 55.2595

EPHEMERIS_TYPE = 0
CLASSIFICATION_TYPE = U
NORAD_CAT_ID   = 270038
ELEMENT_SET_NO = 999
REV_AT_EPOCH   = 28588
BSTAR          = .54225783E-1
MEAN_MOTION_DOT = .13435E-3
MEAN_MOTION_DDOT = 0

CCSDS_OMM_VERS = 2.0
CREATION_DATE  = 
ORIGINATOR     = 

OBJECT_NAME    = UNKNOWN
OBJECT_ID      = 
CENTER_NAME    = EARTH
REF_FRAME      = TEME
TIME_SYSTEM    = UTC
MEAN_ELEMENT_THEORY = SGP/SGP4

EPOCH          = 2026-01-28T04:11:50.857152
MEAN_MOTION    = 14.04797032
ECCENTRICITY   = .00080563
INCLINATION    = 82.5528
RA_OF_ASC_NODE = 0.5163
ARG_OF_PERICENTER = 253.3280
MEAN_ANOMALY   = 106.7008

EPHEMERIS_TYPE = 0
CLASSIFICATION_TYPE = U
NORAD_CAT_ID   = 270039
ELEMENT_SET_NO = 999
REV_AT_EPOCH   = 31524
BSTAR          = .30905329E-2
MEAN_MOTION_DOT = .4972E-4
MEAN_MOTION_DDOT = 0

CCSDS_OMM_VERS = 2.0
CREATION_DATE  = 
ORIGINATOR     = 

OBJECT_NAME    = UNKNOWN
OBJECT_ID      = 
CENTER_NAME    = EARTH
REF_FRAME      = TEME
TIME_SYSTEM    = UTC
MEAN_ELEMENT_THEORY = SGP/SGP4

EPOCH          = 2026-01-20T09:32:49.716960
MEAN_MOTION    = 12.53357011
ECCENTRICITY   = .00272638
INCLINATION    = 101.4040
RA_OF_ASC_NODE = 64.4131
ARG_OF_PERICENTER = 149.1229
MEAN_ANOMALY   = 211.1454

EPHEMERIS_TYPE = 0
CLASSIFICATION_TYPE = U
NORAD_CAT_ID   = 270040
ELEMENT_SET_NO = 999
REV_AT_EPOCH   = 28135
BSTAR          = .27343605E-3
MEAN_MOTION_DOT = .1E-7
MEAN_MOTION_DDOT = 0

CCSDS_OMM_VERS = 2.0
CREATION_DATE  = 
ORIGINATOR     = 

OBJECT_NAME    = UNKNOWN
OBJECT_ID      = 
CENTER_NAME    = EARTH
REF_FRAME      = TEME
TIME_SYSTEM    = UTC
MEAN_ELEMENT_THEORY = SGP/SGP4

EPOCH          = 2026-01-11T00:36:13.965696
MEAN_MOTION    = 13.96298612
ECCENTRICITY   = .02191708
INCLINATION    = 98.4924
RA_OF_ASC_NODE = 122.1055
ARG_OF_PERICENTER = 293.9274
MEAN_ANOMALY   = 63.9073

EPHEMERIS_TYPE = 0
CLASSIFICATION_TYPE = U
NORAD_CAT_ID   = 270041
ELEMENT_SET_NO = 999
REV_AT_EPOCH   = 31112
BSTAR          = .11478643E-2
MEAN_MOTION_DOT = .1894E-4
MEAN_MOTION_DDOT = 0

CCSDS_OMM_VERS = 2.0
CREATION_DATE  = 
ORIGINATOR     = 

OBJECT_NAME    = UNKNOWN
OBJECT_ID      = 
CENTER_NAME    = EARTH
REF_FRAME      = TEME
TIME_SYSTEM    = UTC
MEAN_ELEMENT_THEORY = SGP/SGP4

EPOCH          = 2026-01-09T01:44:00.109536
MEAN_MOTION    = 12.26203820
ECCENTRICITY   = .01362916
INCLINATION    = 74.0224
RA_OF_ASC_NODE = 141.3181
ARG_OF_PERICENTER = 116.9073
MEAN_ANOMALY   = 244.5966

EPHEMERIS_TYPE = 0
CLASSIFICATION_TYPE = U
NORAD_CAT_ID   = 270042
ELEMENT_SET_NO = 999
REV_AT_EPOCH   = 27399
BSTAR          = .20752347E-3
MEAN_MOTION_DOT = .1E-6
MEAN_MOTION_DDOT = 0

CCSDS_OMM_VERS = 2.0
CREATION_DATE  = 
ORIGINATOR     = 

OBJECT_NAME    = UNKNOWN
OBJECT_ID      = 
CENTER_NAME    = EARTH
REF_FRAME      = TEME
TIME_SYSTEM    = UTC
MEAN_ELEMENT_THEORY = SGP/SGP4

EPOCH          = 2026-01-19T09:31:58.880928
MEAN_MOTION    = 13.92353666
ECCENTRICITY   = .02523687
INCLINATION    = 98.9089
RA_OF_ASC_NODE = 78.0149
ARG_OF_PERICENTER = 200.4528
MEAN_ANOMALY   = 158.6384

EPHEMERIS_TYPE = 0
CLASSIFICATION_TYPE = U
NORAD_CAT_ID   = 270043
ELEMENT_SET_NO = 999
REV_AT_EPOCH   = 31077
BSTAR          = .11663651E-2
MEAN_MOTION_DOT = .1903E-4
MEAN_MOTION_DDOT = 0

CCSDS_OMM_VERS = 2.0
CREATION_DATE  = 
ORIGINATOR     = 

OBJECT_NAME    = UNKNOWN
OBJECT_ID      = 
CENTER_NAME    = EARTH
REF_FRAME      = TEME
TIME_SYSTEM    = UTC
MEAN_ELEMENT_THEORY = SGP/SGP4

EPOCH          = 2026-01-26T04:57:38.477376
MEAN_MOTION    = 13.00608968
ECCENTRICITY   = .00134825
INCLINATION    = 90.2526
RA_OF_ASC_NODE = 10.2038
ARG_OF_PERICENTER = 250.5206
MEAN_ANOMALY   = 109.4460

EPHEMERIS_TYPE = 0
CLASSIFICATION_TYPE = U
NORAD_CAT_ID   = 270044
ELEMENT_SET_NO = 999
REV_AT_EPOCH   = 29235
BSTAR          = -.14917752E-2
MEAN_MOTION_DOT = -.445E-5
MEAN_MOTION_DDOT = 0

CCSDS_OMM_VERS = 2.0
CREATION_DATE  = 
ORIGINATOR     = 

OBJECT_NAME    = UNKNOWN
OBJECT_ID      = 
CENTER_NAME    = EARTH
REF_FRAME      = TEME
TIME_SYSTEM    = UTC
MEAN_ELEMENT_THEORY = SGP/SGP4

EPOCH          = 2026-01-22T05:59:34.097280
MEAN_MOTION    = 12.96426511
ECCENTRICITY   = .00387535
INCLINATION    = 90.2505
RA_OF_ASC_NODE = 10.0950
ARG_OF_PERICENTER = 154.0912
MEAN_ANOMALY   = 206.2159

EPHEMERIS_TYPE = 0
CLASSIFICATION_TYPE = U
NORAD_CAT_ID   = 270045
ELEMENT_SET_NO = 999
REV_AT_EPOCH   = 29124
BSTAR          = .18089994E-2
MEAN_MOTION_DOT = .527E-5
MEAN_MOTION_DDOT = 0

CCSDS_OMM_VERS = 2.0
CREATION_DATE  = 
ORIGINATOR     = 

OBJECT_NAME    = UNKNOWN
OBJECT_ID      = 
CENTER_NAME    = EARTH
REF_FRAME      = TEME
TIME_SYSTEM    = UTC
MEAN_ELEMENT_THEORY = SGP/SGP4

EPOCH          = 2026-01-17T15:44:39.679584
MEAN_MOTION    = 12.62579836
ECCENTRICITY   = .00573009
INCLINATION    = 73.9958
RA_OF_ASC_NODE = 357.6554
ARG_OF_PERICENTER = 55.9320
MEAN_ANOMALY   = 304.7158

EPHEMERIS_TYPE = 0
CLASSIFICATION_TYPE = U
NORAD_CAT_ID   = 270046
ELEMENT_SET_NO = 999
REV_AT_EPOCH   = 28298
BSTAR          = .22731735E-3
MEAN_MOTION_DOT = .25E-6
MEAN_MOTION_DDOT = 0

CCSDS_OMM_VERS = 2.0
CREATION_DATE  = 
ORIGINATOR     = 

OBJECT_NAME    = UNKNOWN
OBJECT_ID      = 
CENTER_NAME    = EARTH
REF_FRAME      = TEME
TIME_SYSTEM    = UTC
MEAN_ELEMENT_THEORY = SGP/SGP4

EPOCH          = 2026-01-28T07:41:59.206560
MEAN_MOTION    = 13.77808271
ECCENTRICITY   = .00321641
INCLINATION    = 82.9664
RA_OF_ASC_NODE = 240.5933
ARG_OF_PERICENTER = 248.9952
MEAN_ANOMALY   = 110.7764

EPHEMERIS_TYPE = 0
CLASSIFICATION_TYPE = U
NORAD_CAT_ID   = 270053
ELEMENT_SET_NO = 999
REV_AT_EPOCH   = 30999
BSTAR          = .58648227E-3
MEAN_MOTION_DOT = .604E-5
MEAN_MOTION_DDOT = 0

CCSDS_OMM_VERS = 2.0
CREATION_DATE  = 
ORIGINATOR     = 

OBJECT_NAME    = UNKNOWN
OBJECT_ID      = 
CENTER_NAME    = EARTH
REF_FRAME      = TEME
TIME_SYSTEM    = UTC
MEAN_ELEMENT_THEORY = SGP/SGP4

EPOCH          = 2026-01-11T16:11:39.113664
MEAN_MOTION    = 12.98536401
ECCENTRICITY   = .00296564
INCLINATION    = 90.2147
RA_OF_ASC_NODE = 344.4733
ARG_OF_PERICENTER = 64.2657
MEAN_ANOMALY   = 296.1520

EPHEMERIS_TYPE = 0
CLASSIFICATION_TYPE = U
NORAD_CAT_ID   = 270054
ELEMENT_SET_NO = 999
REV_AT_EPOCH   = 29020
BSTAR          = -.39914688E-3
MEAN_MOTION_DOT = -.11E-5
MEAN_MOTION_DDOT = 0

CCSDS_OMM_VERS = 2.0
CREATION_DATE  = 
ORIGINATOR     = 

OBJECT_NAME    = UNKNOWN
OBJECT_ID      = 
CENTER_NAME    = EARTH
REF_FRAME      = TEME
TIME_SYSTEM    = UTC
MEAN_ELEMENT_THEORY = SGP/SGP4

EPOCH          = 2026-01-26T15:23:17.100096
MEAN_MOTION    = 12.99311502
ECCENTRICITY   = .00309617
INCLINATION    = 90.2450
RA_OF_ASC_NODE = 1.8488
ARG_OF_PERICENTER = 15.2929
MEAN_ANOMALY   = 344.9122

EPHEMERIS_TYPE = 0
CLASSIFICATION_TYPE = U
NORAD_CAT_ID   = 270055
ELEMENT_SET_NO = 999
REV_AT_EPOCH   = 29243
BSTAR          = -.50563214E-3
MEAN_MOTION_DOT = -.143E-5
MEAN_MOTION_DDOT = 0

CCSDS_OMM_VERS = 2.0
CREATION_DATE  = 
ORIGINATOR     = 

OBJECT_NAME    = UNKNOWN
OBJECT_ID      = 
CENTER_NAME    = EARTH
REF_FRAME      = TEME
TIME_SYSTEM    = UTC
MEAN_ELEMENT_THEORY = SGP/SGP4

EPOCH          = 2026-01-26T12:14:26.448576
MEAN_MOTION    = 12.46199962
ECCENTRICITY   = .00807032
INCLINATION    = 101.5869
RA_OF_ASC_NODE = 125.3795
ARG_OF_PERICENTER = 57.5582
MEAN_ANOMALY   = 303.3259

EPHEMERIS_TYPE = 0
CLASSIFICATION_TYPE = U
NORAD_CAT_ID   = 270056
ELEMENT_SET_NO = 999
REV_AT_EPOCH   = 28053
BSTAR          = .26877117E-2
MEAN_MOTION_DOT = .351E-5
MEAN_MOTION_DDOT = 0

CCSDS_OMM_VERS = 2.0
CREATION_DATE  = 
ORIGINATOR     = 

OBJECT_NAME    = UNKNOWN
OBJECT_ID      = 
CENTER_NAME    = EARTH
REF_FRAME      = TEME
TIME_SYSTEM    = UTC
MEAN_ELEMENT_THEORY = SGP/SGP4

EPOCH          = 2026-01-26T16:27:01.513152
MEAN_MOTION    = 12.96047749
ECCENTRICITY   = .00437115
INCLINATION    = 90.2539
RA_OF_ASC_NODE = 10.0597
ARG_OF_PERICENTER = 160.9663
MEAN_ANOMALY   = 199.3103

EPHEMERIS_TYPE = 0
CLASSIFICATION_TYPE = U
NORAD_CAT_ID   = 270057
ELEMENT_SET_NO = 999
REV_AT_EPOCH   = 29181
BSTAR          = .17121605E-2
MEAN_MOTION_DOT = .497E-5
MEAN_MOTION_DDOT = 0

CCSDS_OMM_VERS = 2.0
CREATION_DATE  = 
ORIGINATOR     = 

OBJECT_NAME    = UNKNOWN
OBJECT_ID      = 
CENTER_NAME    = EARTH
REF_FRAME      = TEME
TIME_SYSTEM    = UTC
MEAN_ELEMENT_THEORY = SGP/SGP4

EPOCH          = 2026-01-29T15:00:02.688768
MEAN_MOTION    = 12.97962076
ECCENTRICITY   = .00294985
INCLINATION    = 90.2354
RA_OF_ASC_NODE = 2.2800
ARG_OF_PERICENTER = 44.8168
MEAN_ANOMALY   = 315.5329

EPHEMERIS_TYPE = 0
CLASSIFICATION_TYPE = U
NORAD_CAT_ID   = 270058
ELEMENT_SET_NO = 999
REV_AT_EPOCH   = 29256
BSTAR          = .31252257E-3
MEAN_MOTION_DOT = .99E-6
MEAN_MOTION_DDOT = 0

